{"type": "FeatureCollection", "features": [ {"type": "Feature", "properties": {"norad_id": 51444, "name": "CSG-2", "group": "resource", "lat": -71.18552540072885, "lon": -169.01120509720374, "alt_km": 630.7697742652963, "timestamp": "2025-12-11T15:53:39.200027+00:00", "meta": {"OBJECT_NAME": "CSG-2", "OBJECT_ID": "2022-008A", "EPOCH": "2025-12-11T06:30:03.949056", "MEAN_MOTION": 14.82161188, "ECCENTRICITY": 0.00015113, "INCLINATION": 97.8807, "RA_OF_ASC_NODE": 166.6159, "ARG_OF_PERICENTER": 84.3047, "MEAN_ANOMALY": 275.8338, "EPHEMERIS_TYPE": 0, "CLASSIFICATION_TYPE": "U", "NORAD_CAT_ID": 51444, "ELEMENT_SET_NO": 999, "REV_AT_EPOCH": 20875, "BSTAR": 0.0001202065, "MEAN_MOTION_DOT": 9.05e-06, "MEAN_MOTION_DDOT": 0}, "tle": {"line1": "1 51444U 22008A   25345.27087904  .00000905  00000+0  12021-3 0  9998", "line2": "2 51444  97.8807 166.6159 0001511  84.3047 275.8338 14.82161188208755"}}, "geometry": {"type": "Point", "coordinates": [-169.01120509720374, -71.18552540072885]}}, {"type": "Feature", "properties": {"norad_id": 52912, "name": "GAOFEN-12 03", "group": "resource", "lat": -33.382997288098046, "lon": 47.8212515904646, "alt_km": 638.1668803585317, "timestamp": "2025-12-11T15:53:39.200037+00:00", "meta": {"OBJECT_NAME": "GAOFEN-12 03", "OBJECT_ID": "2022-069A", "EPOCH": "2025-12-11T06:48:59.536224", "MEAN_MOTION": 14.79602839, "ECCENTRICITY": 0.00022698, "INCLINATION": 97.8478, "RA_OF_ASC_NODE": 232.6665, "ARG_OF_PERICENTER": 63.0354, "MEAN_ANOMALY": 297.109, "EPHEMERIS_TYPE": 0, "CLASSIFICATION_TYPE": "U", "NORAD_CAT_ID": 52912, "ELEMENT_SET_NO": 999, "REV_AT_EPOCH": 18682, "BSTAR": 0.00021576603, "MEAN_MOTION_DOT": 1.566e-05, "MEAN_MOTION_DDOT": 0}, "tle": {"line1": "1 52912U 22069A   25345.28402241  .00001566  00000+0  21577-3 0  9992", "line2": "2 52912  97.8478 232.6665 0002269  63.0354 297.1090 14.79602839186826"}}, "geometry": {"type": "Point", "coordinates": [47.8212515904646, -33.382997288098046]}}, {"type": "Feature", "properties": {"norad_id": 54754, "name": "SWOT", "group": "resource", "lat": 42.21738602213705, "lon": 96.94058544799299, "alt_km": 889.3226781936264, "timestamp": "2025-12-11T15:53:39.200048+00:00", "meta": {"OBJECT_NAME": "SWOT", "OBJECT_ID": "2022-173A", "EPOCH": "2025-12-11T06:40:13.107936", "MEAN_MOTION": 14.00174386, "ECCENTRICITY": 3.286e-05, "INCLINATION": 77.6106, "RA_OF_ASC_NODE": 288.9629, "ARG_OF_PERICENTER": 117.1742, "MEAN_ANOMALY": 242.9443, "EPHEMERIS_TYPE": 0, "CLASSIFICATION_TYPE": "U", "NORAD_CAT_ID": 54754, "ELEMENT_SET_NO": 999, "REV_AT_EPOCH": 15285, "BSTAR": 4.5392368e-05, "MEAN_MOTION_DOT": 6.4e-07, "MEAN_MOTION_DDOT": 0}, "tle": {"line1": "1 54754U 22173A   25345.27792949  .00000064  00000+0  45392-4 0  9994", "line2": "2 54754  77.6106 288.9629 0000328 117.1742 242.9443 14.00174386152857"}}, "geometry": {"type": "Point", "coordinates": [96.94058544799299, 42.21738602213705]}}, {"type": "Feature", "properties": {"norad_id": 57654, "name": "GAOFEN-12 04", "group": "resource", "lat": 22.51356089512926, "lon": -101.86866226290344, "alt_km": 629.3671630323897, "timestamp": "2025-12-11T15:53:39.200058+00:00", "meta": {"OBJECT_NAME": "GAOFEN-12 04", "OBJECT_ID": "2023-123A", "EPOCH": "2025-12-11T06:03:14.781888", "MEAN_MOTION": 14.79693262, "ECCENTRICITY": 0.00013547, "INCLINATION": 97.9116, "RA_OF_ASC_NODE": 261.032, "ARG_OF_PERICENTER": 73.7558, "MEAN_ANOMALY": 286.3803, "EPHEMERIS_TYPE": 0, "CLASSIFICATION_TYPE": "U", "NORAD_CAT_ID": 57654, "ELEMENT_SET_NO": 999, "REV_AT_EPOCH": 12483, "BSTAR": 0.00031294608, "MEAN_MOTION_DOT": 2.299e-05, "MEAN_MOTION_DDOT": 0}, "tle": {"line1": "1 57654U 23123A   25345.25225442  .00002299  00000+0  31295-3 0  9997", "line2": "2 57654  97.9116 261.0320 0001354  73.7558 286.3803 14.79693262124831"}}, "geometry": {"type": "Point", "coordinates": [-101.86866226290344, 22.51356089512926]}}, {"type": "Feature", "properties": {"norad_id": 59065, "name": "PARS 1", "group": "resource", "lat": -2.5355328056537063, "lon": 136.2398045343006, "alt_km": 449.24111425098, "timestamp": "2025-12-11T15:53:39.200068+00:00", "meta": {"OBJECT_NAME": "PARS 1", "OBJECT_ID": "2024-039Q", "EPOCH": "2025-12-11T07:18:49.461696", "MEAN_MOTION": 15.40941145, "ECCENTRICITY": 0.00126066, "INCLINATION": 97.4637, "RA_OF_ASC_NODE": 316.2073, "ARG_OF_PERICENTER": 76.4937, "MEAN_ANOMALY": 283.7713, "EPHEMERIS_TYPE": 0, "CLASSIFICATION_TYPE": "U", "NORAD_CAT_ID": 59065, "ELEMENT_SET_NO": 999, "REV_AT_EPOCH": 9966, "BSTAR": 0.00079197493, "MEAN_MOTION_DOT": 0.00032692, "MEAN_MOTION_DDOT": 0}, "tle": {"line1": "1 59065U 24039Q   25345.30473914  .00032692  00000+0  79197-3 0  9990", "line2": "2 59065  97.4637 316.2073 0012606  76.4937 283.7713 15.40941145 99661"}}, "geometry": {"type": "Point", "coordinates": [136.2398045343006, -2.5355328056537063]}}, {"type": "Feature", "properties": {"norad_id": 59371, "name": "RESURS-P 4", "group": "resource", "lat": -1.3714746645204143, "lon": -67.81096685829885, "alt_km": 472.2071447385333, "timestamp": "2025-12-11T15:53:39.200079+00:00", "meta": {"OBJECT_NAME": "RESURS-P 4", "OBJECT_ID": "2024-061A", "EPOCH": "2025-12-11T06:29:42.557280", "MEAN_MOTION": 15.32075262, "ECCENTRICITY": 0.0001629, "INCLINATION": 97.2542, "RA_OF_ASC_NODE": 291.6307, "ARG_OF_PERICENTER": 52.7323, "MEAN_ANOMALY": 307.4068, "EPHEMERIS_TYPE": 0, "CLASSIFICATION_TYPE": "U", "NORAD_CAT_ID": 59371, "ELEMENT_SET_NO": 999, "REV_AT_EPOCH": 9498, "BSTAR": 0.0003292804, "MEAN_MOTION_DOT": 0.00010125, "MEAN_MOTION_DDOT": 0}, "tle": {"line1": "1 59371U 24061A   25345.27063145  .00010125  00000+0  32928-3 0  9990", "line2": "2 59371  97.2542 291.6307 0001629  52.7323 307.4068 15.32075262 94985"}}, "geometry": {"type": "Point", "coordinates": [-67.81096685829885, -1.3714746645204143]}}, {"type": "Feature", "properties": {"norad_id": 59625, "name": "LEGION 1", "group": "resource", "lat": -74.03901339616547, "lon": 87.8218156876393, "alt_km": 521.6931810203669, "timestamp": "2025-12-11T15:53:39.200089+00:00", "meta": {"OBJECT_NAME": "LEGION 1", "OBJECT_ID": "2024-081A", "EPOCH": "2025-12-11T05:08:33.751392", "MEAN_MOTION": 15.16455976, "ECCENTRICITY": 0.00040595, "INCLINATION": 97.5211, "RA_OF_ASC_NODE": 59.8653, "ARG_OF_PERICENTER": 324.6839, "MEAN_ANOMALY": 35.4124, "EPHEMERIS_TYPE": 0, "CLASSIFICATION_TYPE": "U", "NORAD_CAT_ID": 59625, "ELEMENT_SET_NO": 999, "REV_AT_EPOCH": 8904, "BSTAR": 0.00041765429, "MEAN_MOTION_DOT": 8.063e-05, "MEAN_MOTION_DDOT": 0}, "tle": {"line1": "1 59625U 24081A   25345.21427953  .00008063  00000+0  41765-3 0  9996", "line2": "2 59625  97.5211  59.8653 0004059 324.6839  35.4124 15.16455976 89042"}}, "geometry": {"type": "Point", "coordinates": [87.8218156876393, -74.03901339616547]}}, {"type": "Feature", "properties": {"norad_id": 59626, "name": "LEGION 2", "group": "resource", "lat": 74.191237740185, "lon": -91.78740132487287, "alt_km": 513.294592975175, "timestamp": "2025-12-11T15:53:39.200099+00:00", "meta": {"OBJECT_NAME": "LEGION 2", "OBJECT_ID": "2024-081B", "EPOCH": "2025-12-11T05:56:08.544768", "MEAN_MOTION": 15.16468869, "ECCENTRICITY": 0.00057852, "INCLINATION": 97.5212, "RA_OF_ASC_NODE": 59.9853, "ARG_OF_PERICENTER": 299.886, "MEAN_ANOMALY": 60.1798, "EPHEMERIS_TYPE": 0, "CLASSIFICATION_TYPE": "U", "NORAD_CAT_ID": 59626, "ELEMENT_SET_NO": 999, "REV_AT_EPOCH": 8905, "BSTAR": 0.0004533484, "MEAN_MOTION_DOT": 8.764e-05, "MEAN_MOTION_DDOT": 0}, "tle": {"line1": "1 59626U 24081B   25345.24732112  .00008764  00000+0  45335-3 0  9991", "line2": "2 59626  97.5212  59.9853 0005785 299.8860  60.1798 15.16468869 89059"}}, "geometry": {"type": "Point", "coordinates": [-91.78740132487287, 74.191237740185]}}, {"type": "Feature", "properties": {"norad_id": 60182, "name": "ALOS-4 (DAICHI-4)", "group": "resource", "lat": -80.32593395633025, "lon": -154.25147724097195, "alt_km": 639.2721504029432, "timestamp": "2025-12-11T15:53:39.200109+00:00", "meta": {"OBJECT_NAME": "ALOS-4 (DAICHI-4)", "OBJECT_ID": "2024-123A", "EPOCH": "2025-12-10T20:50:51.532800", "MEAN_MOTION": 14.79478132, "ECCENTRICITY": 0.0001419, "INCLINATION": 97.9225, "RA_OF_ASC_NODE": 79.7424, "ARG_OF_PERICENTER": 101.2045, "MEAN_ANOMALY": 258.9326, "EPHEMERIS_TYPE": 0, "CLASSIFICATION_TYPE": "U", "NORAD_CAT_ID": 60182, "ELEMENT_SET_NO": 999, "REV_AT_EPOCH": 7803, "BSTAR": 0.00039567, "MEAN_MOTION_DOT": 2.905e-05, "MEAN_MOTION_DDOT": 0}, "tle": {"line1": "1 60182U 24123A   25344.86865200  .00002905  00000+0  39567-3 0  9990", "line2": "2 60182  97.9225  79.7424 0001419 101.2045 258.9326 14.79478132 78033"}}, "geometry": {"type": "Point", "coordinates": [-154.25147724097195, -80.32593395633025]}}, {"type": "Feature", "properties": {"norad_id": 60452, "name": "LEGION 3", "group": "resource", "lat": 23.80862244054067, "lon": 109.70812475753523, "alt_km": 508.3627352008107, "timestamp": "2025-12-11T15:53:39.200120+00:00", "meta": {"OBJECT_NAME": "LEGION 3", "OBJECT_ID": "2024-146A", "EPOCH": "2025-12-11T05:45:57.419424", "MEAN_MOTION": 15.15737604, "ECCENTRICITY": 0.00147229, "INCLINATION": 45.002, "RA_OF_ASC_NODE": 318.1716, "ARG_OF_PERICENTER": 190.5972, "MEAN_ANOMALY": 169.4598, "EPHEMERIS_TYPE": 0, "CLASSIFICATION_TYPE": "U", "NORAD_CAT_ID": 60452, "ELEMENT_SET_NO": 999, "REV_AT_EPOCH": 7350, "BSTAR": 0.00048105045, "MEAN_MOTION_DOT": 9.097e-05, "MEAN_MOTION_DDOT": 0}, "tle": {"line1": "1 60452U 24146A   25345.24024791  .00009097  00000+0  48105-3 0  9997", "line2": "2 60452  45.0020 318.1716 0014722 190.5972 169.4598 15.15737604 73502"}}, "geometry": {"type": "Point", "coordinates": [109.70812475753523, 23.80862244054067]}}]}